169P/NEAT,e,11.2949,176.0860,218.0774,2.601534,0.2348875,0.76793062,144.8130,01/06.0/2020,2000,g  9.0,4.0
# From MPC 89012
170P/Christensen,e,10.1249,142.9191,225.6714,4.198060,0.1145859,0.30329958,222.2486,01/06.0/2020,2000,g 12.0,4.0
# From MPC102102
171P/Spahr,e,21.9338,101.6964,347.1266,3.557013,0.1469183,0.50177047,52.5011,01/06.0/2020,2000,g 13.5,4.0
# From MPEC 2019-VB6
172P/Yeung,e,11.2345,30.8959,209.3392,4.209749,0.1141090,0.20633188,117.3221,01/06.0/2020,2000,g 13.0,4.0
# From MPEC 2019-VB6
173P/Mueller,e,16.4972,100.4010,29.4049,5.699617,0.0724329,0.26051661,308.3969,01/06.0/2020,2000,g  7.5,4.0
# From MPC 92985
174P/Echeclus,e,4.3431,173.2785,162.8723,10.69881,0.0281644,0.45685958,48.4266,01/06.0/2020,2000,g  9.4,2.0
# From MPC114608
175P/Hergenrother,e,6.0773,123.5325,56.1985,3.427218,0.1553429,0.43209651,15.0985,01/06.0/2020,2000,g 14.0,4.0
# From MPC 89015
176P/LINEAR,e,0.2347,345.8813,35.1804,3.193190,0.1727296,0.19292719,178.0487,01/06.0/2020,2000,g 15.1,2.0
# From MPC 75723
177P/Barnard,e,31.3390,272.3614,60.1631,24.36857,0.0081933,0.95499619,39.9717,01/06.0/2020,2000,g 15.0,4.0
# From MPC105242
178P/Hug-Bell,e,11.0897,102.8746,297.7715,3.630533,0.1424782,0.48178523,332.5612,01/06.0/2020,2000,g 13.5,4.0
# From MPC 75723
179P/Jedicke,e,19.8975,115.5237,296.3993,5.945545,0.0679855,0.30595772,300.7115,01/06.0/2020,2000,g  2.5,8.0
# From MPC100284
180P/NEAT,e,16.8684,84.5553,94.9128,3.860527,0.1299374,0.35352932,193.1972,01/06.0/2020,2000,g 11.0,4.0
# From MPC 89012
181P/Shoemaker-Levy,e,17.4854,35.4114,336.2626,3.870339,0.1294436,0.70029277,264.9879,01/06.0/2020,2000,g 11.5,4.0
# From MPEC 2014-J10
182P/LONEOS,e,16.2420,72.7673,53.7805,2.957297,0.1938035,0.66101094,193.6143,01/06.0/2020,2000,g 18.0,4.0
# From MPC110085
183P/Korlevic-Juric,e,18.6818,5.5528,163.1220,4.512573,0.1028177,0.13988002,79.5844,01/06.0/2020,2000,g 12.5,2.0
# From MPC105242
184P/Lovas,e,4.5723,173.3088,186.4162,3.795097,0.1333122,0.55144410,320.7835,01/06.0/2020,2000,g 13.5,4.0
# From MPC109593
185P/Petriew,e,13.9957,214.0968,181.8933,3.099842,0.1805904,0.69881930,127.9424,01/06.0/2020,2000,g 15.0,4.0
# From MPC100284
186P/Garradd,e,28.4497,326.9156,283.9841,5.012670,0.0878214,0.12432173,21.5669,01/06.0/2020,2000,g  7.5,4.0
# From MPC104795
187P/LINEAR,e,13.6344,109.9227,132.4052,4.576623,0.1006668,0.15271607,60.0205,01/06.0/2020,2000,g  9.0,4.0
# From MPC106349
188P/LINEAR-Mueller,e,10.5172,358.9563,26.6161,4.377296,0.1076206,0.41497347,113.3530,01/06.0/2020,2000,g 11.5,4.0
# From MPC106349
189P/NEAT,e,20.0739,281.7408,16.2440,2.947444,0.1947761,0.58864107,171.9257,01/06.0/2020,2000,g 19.0,4.0
# From MPC 75724
190P/Mueller,e,2.1738,335.5669,50.3046,4.236571,0.1130270,0.52054279,154.7013,01/06.0/2020,2000,g 13.0,4.0
# From MPC 92277
191P/McNaught,e,8.8454,98.2426,283.8544,3.643474,0.1417198,0.38753024,297.8794,01/06.0/2020,2000,g 13.0,4.0
# From MPC 75724
192P/Shoemaker-Levy,e,24.5267,51.6530,312.8881,6.478957,0.0597649,0.77256409,264.2907,01/06.0/2020,2000,g 15.0,4.0
# From MPC 92277
193P/LINEAR-NEAT,e,10.6871,335.1947,8.2801,3.574788,0.1458239,0.39395123,272.8173,01/06.0/2020,2000,g 14.0,4.0
# From MPC 98566
194P/LINEAR,e,11.1582,351.7160,130.6839,3.988408,0.1237384,0.57693298,173.8505,01/06.0/2020,2000,g 16.0,4.0
# From MPC 75724
195P/Hill,e,36.3421,243.0933,249.5361,6.496413,0.0595242,0.31339922,239.0243,01/06.0/2020,2000,g  8.5,4.0
# From MPC 92985
196P/Tichy,e,19.3074,24.2200,12.3562,3.796463,0.1332402,0.42881671,222.9720,01/06.0/2020,2000,g 13.5,4.0
# From MPC 94676
197P/LINEAR,e,25.5522,66.3947,188.7269,2.867080,0.2030226,0.62999401,143.5616,01/06.0/2020,2000,g 16.5,2.0
# From NK 1596
198P/ODAS,e,1.3384,358.2493,69.2849,3.601333,0.1442146,0.44312248,55.9785,01/06.0/2020,2000,g  9.0,4.0
# From MPC 75725
199P/Shoemaker,e,24.9359,92.4009,191.5377,5.900188,0.0687710,0.50599185,269.9473,01/06.0/2020,2000,g 10.0,4.0
# From MPC118098
200P/Larsen,e,12.1051,234.8035,133.9935,4.935892,0.0898785,0.33198061,14.5060,01/06.0/2020,2000,g  9.0,4.0
# From MPC 93588
201P/LONEOS,e,5.7515,20.7289,40.4040,3.366750,0.1595467,0.63882512,279.3448,01/06.0/2020,2000,g 14.0,4.0
# From MPC103849
202P/Scotti,e,2.0296,185.4102,271.4078,3.948749,0.1256073,0.29930512,164.4583,01/06.0/2020,2000,g 13.5,4.0
# From MPEC 2019-TG9
203P/Korlevic,e,2.9733,290.3493,154.8848,4.670807,0.0976374,0.31494226,354.2313,01/06.0/2020,2000,g 14.5,2.0
# From MPC 98566
204P/LINEAR-NEAT,e,6.6326,108.8314,354.8305,3.635403,0.1421920,0.47903104,210.7095,01/06.0/2020,2000,g 14.0,4.0
# From MPC 98566
205P/Giacobini,e,15.2984,179.5986,154.1759,3.543325,0.1477705,0.56767240,250.8571,01/06.0/2020,2000,g 13.0,4.0
# From MPC 75725
206P/Barnard-Boattini,e,33.6388,202.4097,189.4159,3.488149,0.1512905,0.55149308,295.9347,01/06.0/2020,2000,g 19.0,4.0
# From MPC 75725
207P/NEAT,e,10.1490,200.0174,271.5908,3.866058,0.1296587,0.75973190,166.5326,01/06.0/2020,2000,g 16.0,4.0
# From MPC101100
208P/McMillan,e,4.4085,36.3767,310.3791,4.048048,0.1210140,0.37301977,155.2366,01/06.0/2020,2000,g 12.5,4.0
# From MPC 90771
209P/LINEAR,e,21.2580,62.7688,152.4906,2.960864,0.1934534,0.67327752,40.0840,01/06.0/2020,2000,g 17.0,2.0
# From MPC105242
210P/Christensen,e,10.2619,93.8356,345.9065,3.166286,0.1749358,0.83323706,343.7444,01/06.0/2020,2000,g 13.5,4.0
# From MPC 96868
211P/Hill,e,18.9195,117.1357,4.1225,3.550090,0.1473483,0.34194124,212.1183,01/06.0/2020,2000,g 12.5,4.0
# From MPC104795
212P/NEAT,e,22.6666,98.7048,14.5219,3.889807,0.1284730,0.58658550,155.6093,01/06.0/2020,2000,g 17.0,2.0
# From MPC114608
213P/Van Ness,e,10.3811,311.3012,5.5922,3.348422,0.1608584,0.40796211,134.0397,01/06.0/2020,2000,g 10.5,4.0
# From MPC 92986
214P/LINEAR,e,15.1884,348.2669,190.2965,3.615388,0.1433744,0.48615395,217.4446,01/06.0/2020,2000,g 13.0,4.0
# From MPC118098
215P/NEAT,e,10.5813,56.6895,262.0410,4.329164,0.1094203,0.16733665,5.3507,01/06.0/2020,2000,g 11.0,4.0
# From MPC100284
216P/LINEAR,e,9.0495,359.8258,151.3920,3.870597,0.1294307,0.44536325,170.3388,01/06.0/2020,2000,g 13.0,4.0
# From MPC108598
217P/LINEAR,e,12.8629,125.4696,246.8659,3.952423,0.1254322,0.68804280,113.3057,01/06.0/2020,2000,g 12.0,4.0
# From MPC105242
218P/LINEAR,e,2.7252,175.9802,59.7677,3.094794,0.1810325,0.62194102,310.8026,01/06.0/2020,2000,g 16.0,4.0
# From MPC100284
219P/LINEAR,e,11.5290,231.0084,107.3457,3.651569,0.1412488,0.35330390,148.1666,01/06.0/2020,2000,g 11.0,4.0
# From MPC105242
220P/McNaught,e,8.1281,150.1130,180.5713,3.114838,0.1792879,0.50176562,299.0931,01/06.0/2020,2000,g 15.0,4.0
# From MPC 93589
221P/LINEAR,e,11.4265,229.7328,40.0117,3.458401,0.1532466,0.49280790,250.9064,01/06.0/2020,2000,g 14.5,4.0
# From MPC 92277
222P/LINEAR,e,5.0942,6.8060,346.2241,2.899395,0.1996379,0.71431789,42.9104,01/06.0/2020,2000,g 20.0,4.0
# From MPEC 2019-VB6
223P/Skiff,e,27.0140,346.7813,37.8278,4.159227,0.1161944,0.41558951,39.9393,01/06.0/2020,2000,g 12.0,4.0
# From MPC 75727
224P/LINEAR-NEAT,e,13.3442,40.4147,16.8309,3.434076,0.1548778,0.40956235,205.5447,01/06.0/2020,2000,g 15.5,4.0
# From MPC 75727
225P/LINEAR,e,21.3432,14.1819,3.8751,3.651473,0.1412544,0.63742987,174.8052,01/06.0/2020,2000,g 18.0,4.0
# From MPC106349
226P/Pigott-LINEAR-Kowalski,e,44.0049,54.0062,341.0698,3.768113,0.1347467,0.52811565,164.2506,01/06.0/2020,2000,g 12.5,4.0
# From MPC102956
227P/Catalina-LINEAR,e,6.5134,49.6137,90.0408,3.574552,0.1458383,0.50424791,135.1877,01/06.0/2020,2000,g 16.5,2.0
# From MPEC 2017-X08
228P/LINEAR,e,7.9094,30.9911,115.3062,4.174777,0.1155458,0.17699930,352.5195,01/06.0/2020,2000,g 14.5,2.0
# From MPC106349
229P/Gibbs,e,26.0811,157.8953,224.0071,3.932265,0.1263979,0.37628500,121.4031,01/06.0/2020,2000,g 13.0,4.0
# From MPC110497
230P/LINEAR,e,15.5025,107.0430,313.8969,3.438519,0.1545777,0.55192628,236.2864,01/06.0/2020,2000,g 13.0,4.0
# From MPC114608
231P/LINEAR-NEAT,e,12.3341,133.0290,42.7850,4.016966,0.1224212,0.24753665,25.1688,01/06.0/2020,2000,g 14.5,2.0
# From MPC112394
232P/Hill,e,14.6304,56.0245,53.5168,4.483991,0.1038023,0.33444412,28.5034,01/06.0/2020,2000,g 11.5,4.0
# From MPC 92986
233P/La Sagra,e,11.2842,74.9266,27.0782,3.029988,0.1868714,0.41168955,309.5976,01/06.0/2020,2000,g 15.0,4.0
# From MPC110497
234P/LINEAR,e,11.5212,179.5776,357.4572,3.804277,0.1328299,0.25388420,126.3635,01/06.0/2020,2000,g 12.0,4.0
# From MPC110497
235P/LINEAR,e,8.8816,204.1160,333.6407,3.990662,0.1236336,0.31849185,81.5978,01/06.0/2020,2000,g 12.0,4.0
# From MPC107688
236P/LINEAR,e,16.3337,245.6630,119.2036,3.731873,0.1367143,0.50822618,106.1920,01/06.0/2020,2000,g 14.0,4.0
# From MPC109593
237P/LINEAR,e,14.0229,245.4198,25.1529,3.512399,0.1497264,0.43476487,176.7732,01/06.0/2020,2000,g 14.5,2.0
# From MPC107688
238P/Read,e,1.2646,51.6425,324.7424,3.162982,0.1752101,0.25235612,205.2479,01/06.0/2020,2000,g 14.5,4.0
# From MPC112394
239P/LINEAR,e,11.3052,255.9095,220.4036,4.470285,0.1042801,0.63087252,37.6284,01/06.0/2020,2000,g 17.5,2.0
# From MPC109593
240P/NEAT,e,23.5046,74.9247,352.0307,3.869181,0.1295017,0.44870529,77.7441,01/06.0/2020,2000,g 11.0,4.0
# From MPC 75729
241P/LINEAR,e,21.0449,305.5018,110.9680,4.950497,0.0894810,0.61079418,309.3461,01/06.0/2020,2000,g 13.5,4.0
# From MPC 81861
242P/Spahr,e,32.4798,180.5151,246.3170,5.475876,0.0769172,0.27784632,219.4309,01/06.0/2020,2000,g  8.0,4.0
# From MPC111774
243P/NEAT,e,7.6415,87.6571,283.5375,3.831854,0.1313986,0.35961767,65.4339,01/06.0/2020,2000,g 12.5,4.0
# From MPC 88331
244P/Scotti,e,2.2589,353.9923,92.8364,4.895872,0.0909827,0.19806399,264.9065,01/06.0/2020,2000,g  9.0,4.0
# From MPC111774
245P/WISE,e,21.1967,316.6599,316.7778,4.041524,0.1213071,0.45773727,84.4527,01/06.0/2020,2000,g 14.0,4.0
# From MPC114608
246P/NEAT,e,15.9871,78.7493,176.2245,4.016437,0.1224455,0.28679559,309.3663,01/06.0/2020,2000,g 10.5,4.0
# From MPC112394
247P/LINEAR,e,13.6599,54.0122,47.4682,3.970229,0.1245893,0.62477882,49.8269,01/06.0/2020,2000,g 16.5,2.0
# From MPC 75730
248P/Gibbs,e,6.3464,207.7470,209.9460,5.989662,0.0672358,0.63778806,219.9611,01/06.0/2020,2000,g 14.0,4.0
